[{"OBJECT_NAME":"COSMOS 2433 (720)","OBJECT_ID":"2007-052A","EPOCH":"2026-02-01T07:12:06.723648","MEAN_MOTION":2.1310385,"ECCENTRICITY":0.00035852,"INCLINATION":65.6539,"RA_OF_ASC_NODE":320.5081,"ARG_OF_PERICENTER":266.5087,"MEAN_ANOMALY":93.4708,"EPHEMERIS_TYPE":0,"CLASSIFICATION_TYPE":"U","NORAD_CAT_ID":32275,"ELEMENT_SET_NO":999,"REV_AT_EPOCH":14216,"BSTAR":0,"MEAN_MOTION_DOT":-6.6e-7,"MEAN_MOTION_DDOT":0},{"OBJECT_NAME":"COSMOS 2432 (719)","OBJECT_ID":"2007-052B","EPOCH":"2026-02-01T01:49:07.374720","MEAN_MOTION":2.13103102,"ECCENTRICITY":0.00111694,"INCLINATION":65.6698,"RA_OF_ASC_NODE":320.6408,"ARG_OF_PERICENTER":323.0433,"MEAN_ANOMALY":169.182,"EPHEMERIS_TYPE":0,"CLASSIFICATION_TYPE":"U","NORAD_CAT_ID":32276,"ELEMENT_SET_NO":999,"REV_AT_EPOCH":14218,"BSTAR":0,"MEAN_MOTION_DOT":-6.7e-7,"MEAN_MOTION_DDOT":0},{"OBJECT_NAME":"COSMOS 2434 (721)","OBJECT_ID":"2007-065A","EPOCH":"2026-02-02T04:41:16.391040","MEAN_MOTION":2.13101035,"ECCENTRICITY":0.00045564,"INCLINATION":64.3192,"RA_OF_ASC_NODE":196.4659,"ARG_OF_PERICENTER":72.8008,"MEAN_ANOMALY":144.4137,"EPHEMERIS_TYPE":0,"CLASSIFICATION_TYPE":"U","NORAD_CAT_ID":32393,"ELEMENT_SET_NO":999,"REV_AT_EPOCH":14089,"BSTAR":0,"MEAN_MOTION_DOT":3.3e-7,"MEAN_MOTION_DDOT":0},{"OBJECT_NAME":"COSMOS 2436 (723)","OBJECT_ID":"2007-065C","EPOCH":"2026-02-01T23:16:54.645024","MEAN_MOTION":2.13099964,"ECCENTRICITY":0.00177609,"INCLINATION":64.3268,"RA_OF_ASC_NODE":196.5441,"ARG_OF_PERICENTER":9.8821,"MEAN_ANOMALY":167.3904,"EPHEMERIS_TYPE":0,"CLASSIFICATION_TYPE":"U","NORAD_CAT_ID":32395,"ELEMENT_SET_NO":999,"REV_AT_EPOCH":14084,"BSTAR":0,"MEAN_MOTION_DOT":3.4e-7,"MEAN_MOTION_DDOT":0},{"OBJECT_NAME":"COSMOS 2456 (730)","OBJECT_ID":"2009-070A","EPOCH":"2026-02-02T06:09:35.291808","MEAN_MOTION":2.13103391,"ECCENTRICITY":0.0005441,"INCLINATION":64.9293,"RA_OF_ASC_NODE":75.5762,"ARG_OF_PERICENTER":300.7295,"MEAN_ANOMALY":120.9104,"EPHEMERIS_TYPE":0,"CLASSIFICATION_TYPE":"U","NORAD_CAT_ID":36111,"ELEMENT_SET_NO":999,"REV_AT_EPOCH":12555,"BSTAR":0,"MEAN_MOTION_DOT":8.0e-8,"MEAN_MOTION_DDOT":0},{"OBJECT_NAME":"COSMOS 2457 (733)","OBJECT_ID":"2009-070B","EPOCH":"2026-02-01T04:27:30.908160","MEAN_MOTION":2.13100808,"ECCENTRICITY":0.00030131,"INCLINATION":64.9141,"RA_OF_ASC_NODE":75.4593,"ARG_OF_PERICENTER":182.1703,"MEAN_ANOMALY":266.5899,"EPHEMERIS_TYPE":0,"CLASSIFICATION_TYPE":"U","NORAD_CAT_ID":36112,"ELEMENT_SET_NO":999,"REV_AT_EPOCH":12553,"BSTAR":0,"MEAN_MOTION_DOT":1.1e-7,"MEAN_MOTION_DDOT":0},{"OBJECT_NAME":"COSMOS 2460 (732)","OBJECT_ID":"2010-007C","EPOCH":"2026-02-01T07:29:38.413824","MEAN_MOTION":2.13105975,"ECCENTRICITY":0.00017973,"INCLINATION":65.4993,"RA_OF_ASC_NODE":319.0659,"ARG_OF_PERICENTER":329.3142,"MEAN_ANOMALY":216.7476,"EPHEMERIS_TYPE":0,"CLASSIFICATION_TYPE":"U","NORAD_CAT_ID":36402,"ELEMENT_SET_NO":999,"REV_AT_EPOCH":12383,"BSTAR":0,"MEAN_MOTION_DOT":-6.4e-7,"MEAN_MOTION_DDOT":0},{"OBJECT_NAME":"COSMOS 2476 (744)","OBJECT_ID":"2011-064A","EPOCH":"2026-02-02T08:11:10.729824","MEAN_MOTION":2.13103534,"ECCENTRICITY":0.00251154,"INCLINATION":65.1904,"RA_OF_ASC_NODE":77.4251,"ARG_OF_PERICENTER":239.1556,"MEAN_ANOMALY":155.6081,"EPHEMERIS_TYPE":0,"CLASSIFICATION_TYPE":"U","NORAD_CAT_ID":37867,"ELEMENT_SET_NO":999,"REV_AT_EPOCH":11089,"BSTAR":0,"MEAN_MOTION_DOT":9.0e-8,"MEAN_MOTION_DDOT":0},{"OBJECT_NAME":"COSMOS 2477 (745)","OBJECT_ID":"2011-064B","EPOCH":"2026-02-01T03:53:57.255936","MEAN_MOTION":2.13102697,"ECCENTRICITY":0.00221355,"INCLINATION":65.1961,"RA_OF_ASC_NODE":77.5433,"ARG_OF_PERICENTER":239.8205,"MEAN_ANOMALY":151.4979,"EPHEMERIS_TYPE":0,"CLASSIFICATION_TYPE":"U","NORAD_CAT_ID":37868,"ELEMENT_SET_NO":999,"REV_AT_EPOCH":11086,"BSTAR":0,"MEAN_MOTION_DOT":1.2e-7,"MEAN_MOTION_DDOT":0},{"OBJECT_NAME":"COSMOS 2475 (743)","OBJECT_ID":"2011-064C","EPOCH":"2026-02-02T02:44:48.124032","MEAN_MOTION":2.13101409,"ECCENTRICITY":0.00278411,"INCLINATION":65.2035,"RA_OF_ASC_NODE":77.5315,"ARG_OF_PERICENTER":252.4471,"MEAN_ANOMALY":104.8977,"EPHEMERIS_TYPE":0,"CLASSIFICATION_TYPE":"U","NORAD_CAT_ID":37869,"ELEMENT_SET_NO":999,"REV_AT_EPOCH":11088,"BSTAR":0,"MEAN_MOTION_DOT":1.0e-7,"MEAN_MOTION_DDOT":0},{"OBJECT_NAME":"COSMOS 2485 (747)","OBJECT_ID":"2013-019A","EPOCH":"2026-02-02T05:35:12.470208","MEAN_MOTION":2.13102889,"ECCENTRICITY":0.00255351,"INCLINATION":65.3412,"RA_OF_ASC_NODE":78.1352,"ARG_OF_PERICENTER":234.7401,"MEAN_ANOMALY":125.0997,"EPHEMERIS_TYPE":0,"CLASSIFICATION_TYPE":"U","NORAD_CAT_ID":39155,"ELEMENT_SET_NO":999,"REV_AT_EPOCH":9939,"BSTAR":0,"MEAN_MOTION_DOT":1.1e-7,"MEAN_MOTION_DDOT":0},{"OBJECT_NAME":"COSMOS 2492 (754)","OBJECT_ID":"2014-012A","EPOCH":"2026-02-02T04:35:43.434816","MEAN_MOTION":2.13103017,"ECCENTRICITY":0.00139343,"INCLINATION":65.3765,"RA_OF_ASC_NODE":318.5258,"ARG_OF_PERICENTER":320.7642,"MEAN_ANOMALY":39.1616,"EPHEMERIS_TYPE":0,"CLASSIFICATION_TYPE":"U","NORAD_CAT_ID":39620,"ELEMENT_SET_NO":999,"REV_AT_EPOCH":9236,"BSTAR":0,"MEAN_MOTION_DOT":-6.3e-7,"MEAN_MOTION_DDOT":0},{"OBJECT_NAME":"COSMOS 2500 (755)","OBJECT_ID":"2014-032A","EPOCH":"2026-02-01T21:26:58.229664","MEAN_MOTION":2.13105861,"ECCENTRICITY":0.00060433,"INCLINATION":65.3124,"RA_OF_ASC_NODE":318.2938,"ARG_OF_PERICENTER":214.2333,"MEAN_ANOMALY":145.754,"EPHEMERIS_TYPE":0,"CLASSIFICATION_TYPE":"U","NORAD_CAT_ID":40001,"ELEMENT_SET_NO":999,"REV_AT_EPOCH":9057,"BSTAR":0,"MEAN_MOTION_DOT":-6.3e-7,"MEAN_MOTION_DDOT":0},{"OBJECT_NAME":"COSMOS 2501 (702K)","OBJECT_ID":"2014-075A","EPOCH":"2026-01-31T17:54:29.666016","MEAN_MOTION":2.13101146,"ECCENTRICITY":0.00203143,"INCLINATION":63.6169,"RA_OF_ASC_NODE":195.0921,"ARG_OF_PERICENTER":204.25,"MEAN_ANOMALY":155.6308,"EPHEMERIS_TYPE":0,"CLASSIFICATION_TYPE":"U","NORAD_CAT_ID":40315,"ELEMENT_SET_NO":999,"REV_AT_EPOCH":8694,"BSTAR":0,"MEAN_MOTION_DOT":4.1e-7,"MEAN_MOTION_DDOT":0},{"OBJECT_NAME":"COSMOS 2514 (751)","OBJECT_ID":"2016-008A","EPOCH":"2026-01-31T17:31:51.927168","MEAN_MOTION":2.1310253,"ECCENTRICITY":0.00100155,"INCLINATION":65.1027,"RA_OF_ASC_NODE":317.6918,"ARG_OF_PERICENTER":216.3037,"MEAN_ANOMALY":143.6518,"EPHEMERIS_TYPE":0,"CLASSIFICATION_TYPE":"U","NORAD_CAT_ID":41330,"ELEMENT_SET_NO":999,"REV_AT_EPOCH":7771,"BSTAR":0,"MEAN_MOTION_DOT":-6.3e-7,"MEAN_MOTION_DDOT":0},{"OBJECT_NAME":"COSMOS 2522 (752)","OBJECT_ID":"2017-055A","EPOCH":"2026-02-01T23:25:51.264192","MEAN_MOTION":2.13101579,"ECCENTRICITY":0.00064659,"INCLINATION":64.0793,"RA_OF_ASC_NODE":196.4832,"ARG_OF_PERICENTER":223.0023,"MEAN_ANOMALY":136.9194,"EPHEMERIS_TYPE":0,"CLASSIFICATION_TYPE":"U","NORAD_CAT_ID":42939,"ELEMENT_SET_NO":999,"REV_AT_EPOCH":6509,"BSTAR":0,"MEAN_MOTION_DOT":3.4e-7,"MEAN_MOTION_DDOT":0},{"OBJECT_NAME":"COSMOS 2527 (756)","OBJECT_ID":"2018-053A","EPOCH":"2026-01-31T23:58:29.381088","MEAN_MOTION":2.13102093,"ECCENTRICITY":0.00095103,"INCLINATION":65.4991,"RA_OF_ASC_NODE":78.4515,"ARG_OF_PERICENTER":238.2085,"MEAN_ANOMALY":121.7782,"EPHEMERIS_TYPE":0,"CLASSIFICATION_TYPE":"U","NORAD_CAT_ID":43508,"ELEMENT_SET_NO":999,"REV_AT_EPOCH":5937,"BSTAR":0,"MEAN_MOTION_DOT":1.3e-7,"MEAN_MOTION_DDOT":0}]
