COSMOS 2433 [GLONASS-M] 
1 32275U 07052A   26032.30007782 -.00000066  00000+0  00000+0 0  9994
2 32275  65.6539 320.5081 0003585 266.5087  93.4708  2.13103850142167
COSMOS 2432 [GLONASS-M] 
1 32276U 07052B   26032.07577980 -.00000067  00000+0  00000+0 0  9992
2 32276  65.6698 320.6408 0011169 323.0433 169.1820  2.13103102142187
COSMOS 2434 [GLONASS-M] 
1 32393U 07065A   26033.19532860  .00000033  00000+0  00000+0 0  9990
2 32393  64.3192 196.4659 0004556  72.8008 144.4137  2.13101035140894
COSMOS 2436 [GLONASS-M] 
1 32395U 07065C   26032.97007691  .00000034  00000+0  00000+0 0  9997
2 32395  64.3268 196.5441 0017760   9.8821 167.3904  2.13099964140842
COSMOS 2456 [GLONASS-M] 
1 36111U 09070A   26033.25665847  .00000008  00000+0  00000+0 0  9991
2 36111  64.9293  75.5762 0005441 300.7295 120.9104  2.13103391125557
COSMOS 2457 [GLONASS-M] 
1 36112U 09070B   26032.18577440  .00000011  00000+0  00000+0 0  9998
2 36112  64.9141  75.4593 0003013 182.1703 266.5899  2.13100808125536
COSMOS 2460 [GLONASS-M] 
1 36402U 10007C   26032.31225016 -.00000064  00000+0  00000+0 0  9995
2 36402  65.4993 319.0659 0001797 329.3142 216.7476  2.13105975123837
COSMOS 2476 [GLONASS-M] 
1 37867U 11064A   26033.34109641  .00000009  00000+0  00000+0 0  9992
2 37867  65.1904  77.4251 0025115 239.1556 155.6081  2.13103534110896
COSMOS 2477 [GLONASS-M] 
1 37868U 11064B   26032.16246824  .00000012  00000+0  00000+0 0  9991
2 37868  65.1961  77.5433 0022135 239.8205 151.4979  2.13102697110866
COSMOS 2475 [GLONASS-M] 
1 37869U 11064C   26033.11444588  .00000010  00000+0  00000+0 0  9993
2 37869  65.2035  77.5315 0027841 252.4471 104.8977  2.13101409110886
COSMOS 2485 [GLONASS-M] 
1 39155U 13019A   26033.23278322  .00000011  00000+0  00000+0 0  9990
2 39155  65.3412  78.1352 0025535 234.7401 125.0997  2.13102889 99390
COSMOS 2492 [GLONASS-M] 
1 39620U 14012A   26033.19147494 -.00000063  00000+0  00000+0 0  9999
2 39620  65.3765 318.5258 0013934 320.7642  39.1616  2.13103017 92364
COSMOS 2500 [GLONASS-M] 
1 40001U 14032A   26032.89372951 -.00000063  00000+0  00000+0 0  9990
2 40001  65.3124 318.2938 0006043 214.2333 145.7540  2.13105861 90577
COSMOS 2501 [GLONASS-K] 
1 40315U 14075A   26031.74617669  .00000041  00000+0  00000+0 0  9991
2 40315  63.6169 195.0921 0020314 204.2500 155.6308  2.13101146 86940
COSMOS 2514 [GLONASS-M] 
1 41330U 16008A   26031.73046212 -.00000063  00000+0  00000+0 0  9991
2 41330  65.1027 317.6918 0010015 216.3037 143.6518  2.13102530 77715
COSMOS 2522 [GLONASS-M] 
1 42939U 17055A   26032.97628778  .00000034  00000+0  00000+0 0  9997
2 42939  64.0793 196.4832 0006465 223.0023 136.9194  2.13101579 65096
COSMOS 2527 [GLONASS-M] 
1 43508U 18053A   26031.99895117  .00000013  00000+0  00000+0 0  9990
2 43508  65.4991  78.4515 0009510 238.2085 121.7782  2.13102093 59372
